NORAD_CAT_ID,OBJECT_NAME,OBJECT_TYPE,EPOCH,MEAN_MOTION,ECCENTRICITY,INCLINATION,RA_OF_ASC_NODE,ARG_OF_PERICENTER,MEAN_ANOMALY,BSTAR,MEAN_MOTION_DOT,MEAN_MOTION_DDOT,TLE_LINE0,TLE_LINE1,TLE_LINE2,SEMIMAJOR_AXIS,PERIOD,APOGEE,PERIGEE,DECAYED
51877.0,STARLINK-3556,PAYLOAD,2024-07-21 03:56:06,15.08832239,0.0001258,53.2159,157.0291,90.8794,269.2342,2.0185e-05,3.3e-07,0.0,0 STARLINK-3556,1 51877U 22022AB  24203.16396940  .00000033  00000-0  20185-4 0  9991,2 51877  53.2159 157.0291 0001258  90.8794 269.2342 15.08832239133199,6917.904,95.438,540.639,538.899,0.0
51877.0,STARLINK-3556,PAYLOAD,2024-07-21 07:06:53,15.08833854,0.0001264,53.216,156.4324,88.076,272.0377,3.9794e-05,3.45e-06,0.0,0 STARLINK-3556,1 51877U 22022AB  24203.29644847  .00000345  00000-0  39794-4 0  9999,2 51877  53.2160 156.4324 0001264  88.0760 272.0377 15.08833854133217,6917.899,95.438,540.639,538.89,0.0
51877.0,STARLINK-3556,PAYLOAD,2024-07-22 05:22:16,15.08847446,0.0001241,53.2167,152.2698,87.7797,272.3337,0.00010366,1.363e-05,0.0,0 STARLINK-3556,1 51877U 22022AB  24204.22380231  .00001363  00000-0  10366-3 0  9991,2 51877  53.2167 152.2698 0001241  87.7797 272.3337 15.08847446133359,6917.858,95.437,540.581,538.864,0.0
51877.0,STARLINK-3556,PAYLOAD,2024-07-23 13:10:00,15.08836268,0.0001254,53.2178,146.3231,90.6642,269.4494,8.0846e-05,9.99e-06,0.0,0 STARLINK-3556,1 51877U 22022AB  24205.54861128  .00000999  00000-0  80846-4 0  9991,2 51877  53.2178 146.3231 0001254  90.6642 269.4494 15.08836268133557,6917.892,95.438,540.624,538.889,0.0
51877.0,STARLINK-3556,PAYLOAD,2024-07-24 05:03:52,15.0883322,0.0001457,53.2174,143.3493,89.9046,270.2113,-7.1117e-05,-1.419e-05,0.0,0 STARLINK-3556,1 51877U 22022AB  24206.21102078 -.00001419  00000-0 -71117-4 0  9999,2 51877  53.2174 143.3493 0001457  89.9046 270.2113 15.08833220133658,6917.901,95.438,540.774,538.758,0.0
51877.0,STARLINK-3556,PAYLOAD,2024-07-25 03:19:14,15.08861386,0.0001428,53.2169,139.187,93.555,266.5605,0.00012312,1.673e-05,0.0,0 STARLINK-3556,1 51877U 22022AB  24207.13835826  .00001673  00000-0  12312-3 0  9996,2 51877  53.2169 139.1870 0001428  93.5550 266.5605 15.08861386133796,6917.815,95.436,540.668,538.692,0.0
51877.0,STARLINK-3556,PAYLOAD,2024-07-25 19:13:06,15.08838324,0.0001612,53.2162,136.214,94.221,265.8967,0.00032496,4.887e-05,0.0,0 STARLINK-3556,1 51877U 22022AB  24207.80077495  .00004887  00000-0  32496-3 0  9995,2 51877  53.2162 136.2140 0001612  94.2210 265.8967 15.08838324133893,6917.886,95.438,540.866,538.635,0.0
51877.0,STARLINK-3556,PAYLOAD,2024-07-26 04:45:25,15.08850689,0.0001557,53.216,134.4283,97.6173,262.4996,0.0003207,4.821e-05,0.0,0 STARLINK-3556,1 51877U 22022AB  24208.19820871  .00004821  00000-0  32070-3 0  9998,2 51877  53.2160 134.4283 0001557  97.6173 262.4996 15.08850689133952,6917.848,95.437,540.79,538.636,0.0
51877.0,STARLINK-3556,PAYLOAD,2024-07-26 12:42:20,15.08849719,0.0001698,53.2146,132.9414,98.9914,261.127,0.00024796,3.661e-05,0.0,0 STARLINK-3556,1 51877U 22022AB  24208.52940837  .00003661  00000-0  24796-3 0  9997,2 51877  53.2146 132.9414 0001698  98.9914 261.1270 15.08849719134008,6917.851,95.437,540.89,538.541,0.0
51877.0,STARLINK-3556,PAYLOAD,2024-07-28 01:16:13,15.08833571,0.0001305,53.2158,126.1062,77.1298,282.984,1.516e-05,-4.7e-07,0.0,0 STARLINK-3556,1 51877U 22022AB  24210.05293210 -.00000047  00000-0  15160-4 0  9996,2 51877  53.2158 126.1062 0001305  77.1298 282.9840 15.08833571134232,6917.9,95.438,540.668,538.862,0.0
51877.0,STARLINK-3556,PAYLOAD,2024-07-28 21:56:13,15.08841628,0.0001213,53.2148,122.2333,77.6767,282.4361,-0.00027475,-4.658e-05,0.0,0 STARLINK-3556,1 51877U 22022AB  24210.91404878 -.00004658  00000-0 -27475-3 0  9999,2 51877  53.2148 122.2333 0001213  77.6767 282.4361 15.08841628134362,6917.875,95.437,540.58,538.901,0.0
51877.0,STARLINK-3556,PAYLOAD,2024-07-29 01:07:00,15.08842872,0.0001201,53.2164,121.6452,84.0763,276.0366,0.00010559,1.393e-05,0.0,0 STARLINK-3556,1 51877U 22022AB  24211.04652963  .00001393  00000-0  10559-3 0  9990,2 51877  53.2164 121.6452 0001201  84.0763 276.0366 15.08842872134388,6917.872,95.437,540.567,538.906,0.0
51877.0,STARLINK-3556,PAYLOAD,2024-07-29 10:39:19,15.08832231,0.0001317,53.2164,119.8602,90.8899,269.2244,0.00017025,2.422e-05,0.0,0 STARLINK-3556,1 51877U 22022AB  24211.44397328  .00002422  00000-0  17025-3 0  9994,2 51877  53.2164 119.8602 0001317  90.8899 269.2244 15.08832231134441,6917.904,95.438,540.68,538.858,0.0
51877.0,STARLINK-3556,PAYLOAD,2024-07-29 21:47:01,15.08834052,0.0001299,53.2166,117.7791,83.5516,276.5624,0.00014223,1.976e-05,0.0,0 STARLINK-3556,1 51877U 22022AB  24211.90765617  .00001976  00000-0  14223-3 0  9995,2 51877  53.2166 117.7791 0001299  83.5516 276.5624 15.08834052134517,6917.899,95.438,540.662,538.865,0.0
51877.0,STARLINK-3556,PAYLOAD,2024-07-30 10:30:06,15.08826793,0.0001408,53.217,115.4012,92.0783,268.037,0.00042308,6.449e-05,0.0,0 STARLINK-3556,1 51877U 22022AB  24212.43757727  .00006449  00000-0  42308-3 0  9992,2 51877  53.2170 115.4012 0001408  92.0783 268.0370 15.08826793134591,6917.921,95.438,540.76,538.812,0.0
51877.0,STARLINK-3556,PAYLOAD,2024-07-30 23:13:11,15.08844417,0.0001423,53.2177,113.0228,95.9966,264.1188,5.6553e-05,6.12e-06,0.0,0 STARLINK-3556,1 51877U 22022AB  24212.96749303  .00000612  00000-0  56553-4 0  9995,2 51877  53.2177 113.0228 0001423  95.9966 264.1188 15.08844417134679,6917.867,95.437,540.716,538.747,0.0
51877.0,STARLINK-3556,PAYLOAD,2024-07-31 00:48:34,15.08845282,0.0001402,53.2177,112.7252,94.1632,265.9521,5.9338e-05,6.57e-06,0.0,0 STARLINK-3556,1 51877U 22022AB  24213.03373215  .00000657  00000-0  59338-4 0  9992,2 51877  53.2177 112.7252 0001402  94.1632 265.9521 15.08845282134682,6917.864,95.437,540.699,538.759,0.0
51877.0,STARLINK-3556,PAYLOAD,2024-07-31 10:20:53,15.08842051,0.0001333,53.2173,110.94,93.7567,266.3577,4.2446e-06,-2.2e-06,0.0,0 STARLINK-3556,1 51877U 22022AB  24213.43117457 -.00000220  00000-0  42446-5 0  9990,2 51877  53.2173 110.9400 0001333  93.7567 266.3577 15.08842051134742,6917.874,95.437,540.661,538.817,0.0
51877.0,STARLINK-3556,PAYLOAD,2024-07-31 21:28:36,15.08832851,0.0001647,53.2171,108.8585,92.6933,267.4247,6.1126e-06,-1.91e-06,0.0,0 STARLINK-3556,1 51877U 22022AB  24213.89486328 -.00000191  00000-0  61126-5 0  9999,2 51877  53.2171 108.8585 0001647  92.6933 267.4247 15.08832851134814,6917.902,95.438,540.907,538.628,0.0
51877.0,STARLINK-3556,PAYLOAD,2024-07-31 23:03:59,15.0883516,0.0001487,53.217,108.5609,92.2125,267.9037,-3.9182e-05,-9.11e-06,0.0,0 STARLINK-3556,1 51877U 22022AB  24213.96110301 -.00000911  00000-0 -39182-4 0  9999,2 51877  53.2170 108.5609 0001487  92.2125 267.9037 15.08835160134827,6917.895,95.438,540.789,538.731,0.0
51877.0,STARLINK-3556,PAYLOAD,2024-08-01 00:39:21,15.08842911,0.0001352,53.2173,108.262,89.3792,270.7355,6.866e-06,-1.79e-06,0.0,0 STARLINK-3556,1 51877U 22022AB  24214.02733667 -.00000179  00000-0  68660-5 0  9992,2 51877  53.2173 108.2620 0001352  89.3792 270.7355 15.08842911134836,6917.871,95.437,540.672,538.801,0.0
51877.0,STARLINK-3556,PAYLOAD,2024-08-01 21:19:21,15.08851913,0.0001417,53.2174,104.3973,91.4392,268.6762,0.00015573,2.192e-05,0.0,0 STARLINK-3556,1 51877U 22022AB  24214.88844430  .00002192  00000-0  15573-3 0  9996,2 51877  53.2174 104.3973 0001417  91.4392 268.6762 15.08851913134961,6917.844,95.437,540.689,538.729,0.0
51877.0,STARLINK-3556,PAYLOAD,2024-08-01 22:54:44,15.08854014,0.0001227,53.2164,104.1004,96.4976,263.6156,0.00018573,2.67e-05,0.0,0 STARLINK-3556,1 51877U 22022AB  24214.95468195  .00002670  00000-0  18573-3 0  9998,2 51877  53.2164 104.1004 0001227  96.4976 263.6156 15.08854014134973,6917.838,95.437,540.551,538.854,0.0
51877.0,STARLINK-3556,PAYLOAD,2024-08-02 00:30:07,15.08864308,0.0001315,53.2166,103.7991,100.2193,259.8947,0.00019242,2.778e-05,0.0,0 STARLINK-3556,1 51877U 22022AB  24215.02091537  .00002778  00000-0  19242-3 0  9992,2 51877  53.2166 103.7991 0001315 100.2193 259.8947 15.08864308134981,6917.806,95.436,540.581,538.761,0.0
51877.0,STARLINK-3556,PAYLOAD,2024-08-02 10:02:27,15.08836345,0.000149,53.216,102.0155,83.4495,276.6666,3.6069e-05,2.86e-06,0.0,0 STARLINK-3556,1 51877U 22022AB  24215.41837443  .00000286  00000-0  36069-4 0  9998,2 51877  53.2160 102.0155 0001490  83.4495 276.6666 15.08836345135043,6917.892,95.438,540.787,538.726,0.0
51877.0,STARLINK-3556,PAYLOAD,2024-08-02 21:10:11,15.08802436,0.0001188,53.2151,99.937,76.0586,284.0539,-0.00032707,-5.484e-05,0.0,0 STARLINK-3556,1 51877U 22022AB  24215.88207848 -.00005484  00000-0 -32707-3 0  9990,2 51877  53.2151  99.9370 0001188  76.0586 284.0539 15.08802436135113,6917.995,95.44,540.682,539.038,0.0
51877.0,STARLINK-3556,PAYLOAD,2024-08-02 22:45:34,15.08800734,8.98e-05,53.2147,99.639,74.5024,285.6068,-0.00034975,-5.843e-05,0.0,0 STARLINK-3556,1 51877U 22022AB  24215.94831969 -.00005843  00000-0 -34975-3 0  9992,2 51877  53.2147  99.6390 0000898  74.5024 285.6068 15.08800734135128,6918.0,95.44,540.487,539.244,0.0
51877.0,STARLINK-3556,PAYLOAD,2024-08-03 21:00:56,15.08858082,0.0001149,53.2161,95.4754,82.9124,277.1999,0.00021846,3.192e-05,0.0,0 STARLINK-3556,1 51877U 22022AB  24216.87565811  .00003192  00000-0  21846-3 0  9991,2 51877  53.2161  95.4754 0001149  82.9124 277.1999 15.08858082135269,6917.825,95.436,540.485,538.895,0.0
51877.0,STARLINK-3556,PAYLOAD,2024-08-03 22:36:19,15.08859937,0.0001193,53.216,95.1769,86.0216,274.0912,0.00025241,3.734e-05,0.0,0 STARLINK-3556,1 51877U 22022AB  24216.94189676  .00003734  00000-0  25241-3 0  9995,2 51877  53.2160  95.1769 0001193  86.0216 274.0912 15.08859937135279,6917.819,95.436,540.51,538.859,0.0
51877.0,STARLINK-3556,PAYLOAD,2024-08-04 20:51:44,15.0884664,0.0001286,53.216,91.0136,77.8928,282.2208,0.00054534,8.403e-05,0.0,0 STARLINK-3556,1 51877U 22022AB  24217.86926350  .00008403  00000-0  54534-3 0  9990,2 51877  53.2160  91.0136 0001286  77.8928 282.2208 15.08846640135415,6917.86,95.437,540.615,538.835,0.0
